[{"OBJECT_NAME":"STARLINK-32458","OBJECT_ID":"2024-210D","EPOCH":"2026-03-09T11:31:17.088096","MEAN_MOTION":15.27575869,"ECCENTRICITY":0.00011369,"INCLINATION":42.9997,"RA_OF_ASC_NODE":166.6667,"ARG_OF_PERICENTER":256.8221,"MEAN_ANOMALY":103.2504,"EPHEMERIS_TYPE":0,"CLASSIFICATION_TYPE":"U","NORAD_CAT_ID":61962,"ELEMENT_SET_NO":999,"REV_AT_EPOCH":7504,"BSTAR":0.0010036825,"MEAN_MOTION_DOT":0.00027456,"MEAN_MOTION_DDOT":0},{"OBJECT_NAME":"CZ-6A R\/B","OBJECT_ID":"2023-168B","EPOCH":"2026-03-09T21:13:08.722272","MEAN_MOTION":15.16100791,"ECCENTRICITY":0.00607667,"INCLINATION":97.7542,"RA_OF_ASC_NODE":104.7688,"ARG_OF_PERICENTER":339.2379,"MEAN_ANOMALY":20.6386,"EPHEMERIS_TYPE":0,"CLASSIFICATION_TYPE":"U","NORAD_CAT_ID":58200,"ELEMENT_SET_NO":999,"REV_AT_EPOCH":12979,"BSTAR":0.00029693841,"MEAN_MOTION_DOT":5.919e-5,"MEAN_MOTION_DDOT":0}]
